STARLINK-4373           
1 53219U 22084AG  26182.14292782 -.00001076  00000+0 -70651-4 0  9998
2 53219  97.2887 241.5321 0001522 120.8029 239.3349 15.05658304216451
STARLINK-4363           
1 53220U 22084AH  26182.10834904  .00000226  00000+0  19534-4 0  9991
2 53220  97.2932 240.3776 0001210  83.0170 277.1195 15.05657564216890
STARLINK-4377           
1 53221U 22084AJ  26182.13604662  .00001957  00000+0  13950-3 0  9998
2 53221  97.2910 240.4716 0001674  92.6296 267.5123 15.05647843216388
STARLINK-4356           
1 53224U 22084AM  26182.11111589  .00003746  00000+0  26347-3 0  9992
2 53224  97.2888 240.3600 0001625 116.3079 243.8316 15.05643531216375
STARLINK-4358           
1 53225U 22084AN  26182.14569672 -.00000880  00000+0 -57117-4 0  9994
2 53225  97.2884 241.5118 0001214  95.3117 264.8249 15.05658350216454
STARLINK-4359           
1 53226U 22084AP  26182.09451744  .00000401  00000+0  31690-4 0  9994
2 53226  97.2915 240.3731 0002377 120.3664 239.7799 15.05661695216373
STARLINK-4366           
1 53227U 22084AQ  26182.12631227  .00001640  00000+0  11756-3 0  9991
2 53227  97.2925 241.5183 0000833 148.6088 211.5189 15.05653923216452
STARLINK-4365           
1 53228U 22084AR  26182.11943008  .00000275  00000+0  22979-4 0  9997
2 53228  97.2903 240.4841 0001950 110.9271 249.2166 15.05661111216388
STARLINK-4367           
1 53229U 22084AS  26182.13178323  .00000144  00000+0  13905-4 0  9994
2 53229  97.3373 241.5776 0001362  81.8395 278.2987 15.05670198216456
STARLINK-4364           
1 53230U 22084AT  26182.10971829  .00000634  00000+0  47790-4 0  9998
2 53230  97.2896 241.5551 0001966 110.5479 249.5959 15.05665058216450
STARLINK-4370           
1 53231U 22084AU  26182.12079345 -.00002047  00000+0 -13807-3 0  9996
2 53231  97.2945 241.5295 0001149 139.0325 221.0989 15.05639966216457
STARLINK-4371           
1 53232U 22084AV  26182.09176351  .00019373  00000+0  13453-2 0  9992
2 53232  97.2918 240.3564 0003318 148.5252 211.6175 15.05581758216376
STARLINK-4372           
1 53233U 22084AW  26182.14988705 -.00000544  00000+0 -33774-4 0  9995
2 53233  97.2900 240.4204 0002537 115.1442 245.0049 15.05652476216381
STARLINK-4368           
1 53234U 22084AX  26182.11805207  .00092712  00000+0  16713-2 0  9996
2 53234  97.5993 244.2494 0001556  74.5432 285.5990 15.49444016217547
CSS (WENTIAN)           
1 53239U 22085A   26181.85942709  .00021186  00000+0  24432-3 0  9996
2 53239  41.4677 238.7619 0008720 188.7770 171.2918 15.61388759288239
STARLINK-4056           
1 53242U 22086A   26180.91433909 -.00001301  00000+0 -63695-4 0  9998
2 53242  53.1613  55.1447 0001352  91.1187 268.9960 15.08828642218253
STARLINK-4047           
1 53243U 22086B   26182.14446772  .00040556  00000+0  25300-2 0  9990
2 53243  53.1614  54.3150 0001541  95.7885 264.3282 15.09151131218397
STARLINK-4125           
1 53244U 22086C   26182.16670139  .00098552  00000+0  53792-2 0  9994
2 53244  53.1588  54.5655 0000459  56.1216 303.1936 15.13530872  5734
STARLINK-4131           
1 53246U 22086E   26182.16670139  .00096307  00000+0  53889-2 0  9999
2 53246  53.1587  54.5010 0000436  70.8765 301.9770 15.12655467  5646
STARLINK-4061           
1 53247U 22086F   26180.92907136 -.00000389  00000+0 -63537-5 0  9993
2 53247  53.1622  55.2726 0001385  90.2982 269.8168 15.08831054218259
STARLINK-4135           
1 53248U 22086G   26180.91802738  .00001720  00000+0  12615-3 0  9992
2 53248  53.1612  55.2443 0001347  91.1343 268.9803 15.08841195218257
STARLINK-4128           
1 53249U 22086H   26182.16670139  .00009652  00000+0  34642-3 0  9996
2 53249  53.1634  43.5765 0001323  79.9439 344.1630 15.29351421  5725
STARLINK-4059           
1 53250U 22086J   26182.16670139  .00043323  00000+0  23926-2 0  9993
2 53250  53.1603  44.4702 0001217 106.8207 196.9733 15.13525116  5835
STARLINK-4129           
1 53251U 22086K   26182.16670139  .01015535  00000+0  36591-1 0  9990
2 53251  53.1607  43.7180 0001057  60.7415 331.3375 15.25276254  5783
STARLINK-4132           
1 53252U 22086L   26182.16670139  .00843948  00000+0  29159-1 0  9999
2 53252  53.1615  43.7589 0001156  88.1765 237.3341 15.26740646  5722
STARLINK-4133           
1 53253U 22086M   26182.16670139  .00995915  00000+0  37930-1 0  9998
2 53253  53.1605  43.8211 0000811  76.5492 282.4086 15.23462978  5789
STARLINK-4134           
1 53254U 22086N   26181.64622714 -.00000316  00000+0 -17724-5 0  9994
2 53254  53.1609  46.8774 0001306  88.7945 271.3196 15.08831632218133
STARLINK-4142           
1 53255U 22086P   26181.63055047 -.00000075  00000+0  13401-4 0  9991
2 53255  53.1605  46.9361 0001371  93.3686 266.7462 15.08836440218113
STARLINK-4147           
1 53256U 22086Q   26181.63422752 -.00000618  00000+0 -20731-4 0  9991
2 53256  53.1602  46.9204 0001236  89.2043 270.9090 15.08838650218117
STARLINK-4144           
1 53257U 22086R   26181.61950960 -.00000115  00000+0  10858-4 0  9997
2 53257  53.1605  46.9864 0001260  88.0570 272.0566 15.08836237218112
