OBJECT_NAME,OBJECT_ID,EPOCH,MEAN_MOTION,ECCENTRICITY,INCLINATION,RA_OF_ASC_NODE,ARG_OF_PERICENTER,MEAN_ANOMALY,EPHEMERIS_TYPE,CLASSIFICATION_TYPE,NORAD_CAT_ID,ELEMENT_SET_NO,REV_AT_EPOCH,BSTAR,MEAN_MOTION_DOT,MEAN_MOTION_DDOT
STARLINK-4373,2022-084AG,2026-07-01T03:25:48.963648,15.05658304,.0001522,97.2887,241.5321,120.8029,239.3349,0,U,53219,999,21645,-.70651E-4,-.1076E-4,0
STARLINK-4363,2022-084AH,2026-07-01T02:36:01.357056,15.05657564,.000121,97.2932,240.3776,83.0170,277.1195,0,U,53220,999,21689,.19534E-4,.226E-5,0
STARLINK-4377,2022-084AJ,2026-07-01T03:15:54.427968,15.05647843,.0001674,97.2910,240.4716,92.6296,267.5123,0,U,53221,999,21638,.1395E-3,.1957E-4,0
STARLINK-4356,2022-084AM,2026-07-01T02:40:00.412896,15.05643531,.0001625,97.2888,240.3600,116.3079,243.8316,0,U,53224,999,21637,.26347E-3,.3746E-4,0
STARLINK-4358,2022-084AN,2026-07-01T03:29:48.196608,15.05658350,.0001214,97.2884,241.5118,95.3117,264.8249,0,U,53225,999,21645,-.57117E-4,-.88E-5,0
STARLINK-4359,2022-084AP,2026-07-01T02:16:06.306816,15.05661695,.0002377,97.2915,240.3731,120.3664,239.7799,0,U,53226,999,21637,.3169E-4,.401E-5,0
STARLINK-4366,2022-084AQ,2026-07-01T03:01:53.380128,15.05653923,.0000833,97.2925,241.5183,148.6088,211.5189,0,U,53227,999,21645,.11756E-3,.164E-4,0
STARLINK-4365,2022-084AR,2026-07-01T02:51:58.758912,15.05661111,.000195,97.2903,240.4841,110.9271,249.2166,0,U,53228,999,21638,.22979E-4,.275E-5,0
STARLINK-4367,2022-084AS,2026-07-01T03:09:46.071072,15.05670198,.0001362,97.3373,241.5776,81.8395,278.2987,0,U,53229,999,21645,.13905E-4,.144E-5,0
STARLINK-4364,2022-084AT,2026-07-01T02:37:59.660256,15.05665058,.0001966,97.2896,241.5551,110.5479,249.5959,0,U,53230,999,21645,.4779E-4,.634E-5,0
STARLINK-4370,2022-084AU,2026-07-01T02:53:56.554080,15.05639966,.0001149,97.2945,241.5295,139.0325,221.0989,0,U,53231,999,21645,-.13807E-3,-.2047E-4,0
STARLINK-4371,2022-084AV,2026-07-01T02:12:08.367264,15.05581758,.0003318,97.2918,240.3564,148.5252,211.6175,0,U,53232,999,21637,.13453E-2,.19373E-3,0
STARLINK-4372,2022-084AW,2026-07-01T03:35:50.241120,15.05652476,.0002537,97.2900,240.4204,115.1442,245.0049,0,U,53233,999,21638,-.33774E-4,-.544E-5,0
STARLINK-4368,2022-084AX,2026-07-01T02:49:59.698848,15.49444016,.0001556,97.5993,244.2494,74.5432,285.5990,0,U,53234,999,21754,.16713E-2,.92712E-3,0
CSS (WENTIAN),2022-085A,2026-06-30T20:37:34.500576,15.61388759,.00087205,41.4677,238.7619,188.7770,171.2918,0,U,53239,999,28823,.24432091E-3,.21186E-3,0
STARLINK-4056,2022-086A,2026-06-29T21:56:38.897376,15.08828642,.00013525,53.1613,55.1447,91.1187,268.9960,0,U,53242,999,21825,-.63694694E-4,-.1301E-4,0
STARLINK-4047,2022-086B,2026-07-01T03:28:02.011008,15.09151131,.0001541,53.1614,54.3150,95.7885,264.3282,0,U,53243,999,21839,.253E-2,.40556E-3,0
STARLINK-4125,2022-086C,2026-07-01T04:00:03.000096,15.13530872,.0000459,53.1588,54.5655,56.1216,303.1936,0,U,53244,999,573,.53792E-2,.98552E-3,0
STARLINK-4131,2022-086E,2026-07-01T04:00:03.000096,15.12655467,.0000436,53.1587,54.5010,70.8765,301.9770,0,U,53246,999,564,.53889E-2,.96307E-3,0
STARLINK-4061,2022-086F,2026-06-29T22:17:51.765504,15.08831054,.00013856,53.1622,55.2726,90.2982,269.8168,0,U,53247,999,21825,-.6353653E-5,-.389E-5,0
STARLINK-4135,2022-086G,2026-06-29T22:01:57.565632,15.08841195,.00013474,53.1612,55.2443,91.1343,268.9803,0,U,53248,999,21825,.12615321E-3,.172E-4,0
STARLINK-4128,2022-086H,2026-07-01T04:00:03.000096,15.29351421,.0001323,53.1634,43.5765,79.9439,344.1630,0,U,53249,999,572,.34642E-3,.9652E-4,0
STARLINK-4059,2022-086J,2026-07-01T04:00:03.000096,15.13525116,.0001217,53.1603,44.4702,106.8207,196.9733,0,U,53250,999,583,.23926E-2,.43323E-3,0
STARLINK-4129,2022-086K,2026-07-01T04:00:03.000096,15.25276254,.0001057,53.1607,43.7180,60.7415,331.3375,0,U,53251,999,578,.36591E-1,.1015535E-1,0
STARLINK-4132,2022-086L,2026-07-01T04:00:03.000096,15.26740646,.0001156,53.1615,43.7589,88.1765,237.3341,0,U,53252,999,572,.29159E-1,.843948E-2,0
STARLINK-4133,2022-086M,2026-07-01T04:00:03.000096,15.23462978,.0000811,53.1605,43.8211,76.5492,282.4086,0,U,53253,999,578,.3793E-1,.995915E-2,0
STARLINK-4134,2022-086N,2026-06-30T15:30:34.024896,15.08831632,.00013062,53.1609,46.8774,88.7945,271.3196,0,U,53254,999,21813,-.1772427E-5,-.316E-5,0
STARLINK-4142,2022-086P,2026-06-30T15:07:59.560608,15.08836440,.00013713,53.1605,46.9361,93.3686,266.7462,0,U,53255,999,21811,.13401277E-4,-.75E-6,0
STARLINK-4147,2022-086Q,2026-06-30T15:13:17.257728,15.08838650,.00012365,53.1602,46.9204,89.2043,270.9090,0,U,53256,999,21811,-.20731353E-4,-.618E-5,0
STARLINK-4144,2022-086R,2026-06-30T14:52:05.629440,15.08836237,.00012601,53.1605,46.9864,88.0570,272.0566,0,U,53257,999,21811,.10858383E-4,-.115E-5,0
